NORAD_CAT_ID,OBJECT_NAME,OBJECT_TYPE,EPOCH,MEAN_MOTION,ECCENTRICITY,INCLINATION,RA_OF_ASC_NODE,ARG_OF_PERICENTER,MEAN_ANOMALY,BSTAR,MEAN_MOTION_DOT,MEAN_MOTION_DDOT,TLE_LINE0,TLE_LINE1,TLE_LINE2,SEMIMAJOR_AXIS,PERIOD,APOGEE,PERIGEE,DECAYED
54809.0,TBA - TO BE ASSIGNED,UNKNOWN,2022-12-27 18:00:00,15.78530983,0.000124,53.2176,256.9605,48.8328,249.9983,-0.007595,-0.01197074,0.0,0 TBA - TO BE ASSIGNED,1 54809U 22175BD  22361.75001157 -.01197074  00000-0 -75950-2 0  9992,2 54809  53.2176 256.9605 0001240  48.8328 249.9983 15.78530983  1302,6712.739000000001,91.224,335.436,333.772,
54809.0,TBA - TO BE ASSIGNED,UNKNOWN,2022-12-27 22:00:00,15.78055185,0.0001388,53.2172,256.1309,54.3339,112.0459,-0.0073546,-0.01141145,0.0,0 TBA - TO BE ASSIGNED,1 54809U 22175BD  22361.91667824 -.01141145  00000-0 -73546-2 0  9996,2 54809  53.2172 256.1309 0001388  54.3339 112.0459 15.78055185  1302,6714.0880000000025,91.252,336.885,335.021,
54809.0,STARLINK-5414,PAYLOAD,2022-12-28 14:00:01,15.76357364,0.0001197,53.2172,252.8106,42.8365,311.038,-0.0083365,-0.0119195999999999,0.0,0 STARLINK-5414,1 54809U 22175BD  22362.58334491 -.01191960  00000-0 -83365-2 0  9991,2 54809  53.2172 252.8106 0001197  42.8365 311.0380 15.76357364  1305,6718.908,91.35,341.5780000000001,339.969,0.0
54809.0,STARLINK-5414,PAYLOAD,2022-12-28 22:00:00,15.75496901,0.0001326,53.2173,251.1561,49.202,36.8593,-0.0087372999999999,-0.01201301,0.0,0 STARLINK-5414,1 54809U 22175BD  22362.91667824 -.01201301  00000-0 -87373-2 0  9991,2 54809  53.2173 251.1561 0001326  49.2020  36.8593 15.75496901  1304,6721.355,91.4,344.111,342.3280000000001,0.0
54809.0,STARLINK-5414,PAYLOAD,2022-12-29 06:00:02,15.74621308,0.0001519,53.2169,249.5024,43.8882,133.3894,-0.0089828999999999,-0.01189899,0.0,0 STARLINK-5414,1 54809U 22175BD  22363.25002315 -.01189899  00000-0 -89829-2 0  9992,2 54809  53.2169 249.5024 0001519  43.8882 133.3894 15.74621308  1536,6723.846,91.451,346.732,344.69,0.0
54809.0,STARLINK-5414,PAYLOAD,2022-12-29 14:00:01,15.736181,0.0001547,53.2173,247.8482,46.5969,220.7367,-0.0039217,-0.00527298,0.0,0 STARLINK-5414,1 54809U 22175BD  22363.58334491 -.00527298  00000-0 -39217-2 0  9995,2 54809  53.2173 247.8482 0001547  46.5969 220.7367 15.73618100  1583,6726.703,91.509,349.6090000000001,347.528,0.0
54809.0,STARLINK-5414,PAYLOAD,2022-12-29 22:00:00,15.73155348,0.0001216,53.2172,246.2,68.9272,287.6271,0.00057938,0.00081326,0.0,0 STARLINK-5414,1 54809U 22175BD  22363.91667824  .00081326  00000-0  57938-3 0  9997,2 54809  53.2172 246.2000 0001216  68.9272 287.6271 15.73155348  1642,6728.022,91.536,350.706,349.069,0.0
54809.0,STARLINK-5414,PAYLOAD,2022-12-30 06:00:00,15.73149959,0.0001649,53.215,244.5543,57.7594,27.7187,0.00039075,0.00054458,0.0,0 STARLINK-5414,1 54809U 22175BD  22364.25001157  .00054458  00000-0  39075-3 0  9994,2 54809  53.2150 244.5543 0001649  57.7594  27.7187 15.73149959  1699,6728.038000000001,91.536,351.01199999999994,348.793,0.0
54809.0,STARLINK-5414,PAYLOAD,2022-12-30 14:00:01,15.73168997,0.0001504,53.2153,242.903,66.7613,107.6126,0.0007901,0.00111601,0.0,0 STARLINK-5414,1 54809U 22175BD  22364.58334491  .00111601  00000-0  79010-3 0  9997,2 54809  53.2153 242.9030 0001504  66.7613 107.6126 15.73168997  1309,6727.984,91.535,350.86,348.837,0.0
54809.0,STARLINK-5414,PAYLOAD,2022-12-30 22:00:00,15.73291224,0.0001563,53.2155,241.2553,60.7077,202.6194,-2.0435e-05,-3.499e-05,0.0,0 STARLINK-5414,1 54809U 22175BD  22364.91667824 -.00003499  00000-0 -20435-4 0  9998,2 54809  53.2155 241.2553 0001563  60.7077 202.6194 15.73291224  1790,6727.635,91.528,350.552,348.449,0.0
54809.0,STARLINK-5414,PAYLOAD,2022-12-31 14:00:01,15.73196161,0.0001091,53.2154,237.9543,58.1393,23.1908,0.00035744,0.00049834,0.0,0 STARLINK-5414,1 54809U 22175BD  22365.58334491  .00049834  00000-0  35744-3 0  9992,2 54809  53.2154 237.9543 0001091  58.1393  23.1908 15.73196161  1904,6727.906,91.533,350.505,349.037,0.0
54809.0,STARLINK-5414,PAYLOAD,2022-12-31 22:00:00,15.73209327,0.0001234,53.2152,236.3067,49.1742,121.088,-0.0001899999999999,-0.00027209,0.0,0 STARLINK-5414,1 54809U 22175BD  22365.91667824 -.00027209  00000-0 -19000-3 0  9999,2 54809  53.2152 236.3067 0001234  49.1742 121.0880 15.73209327  1303,6727.869000000002,91.533,350.564,348.903,0.0
54809.0,STARLINK-5414,PAYLOAD,2023-01-01 14:00:01,15.73157866,0.0001372,53.2153,233.0058,64.7811,283.3009,-2.5912e-05,-4.248e-05,0.0,0 STARLINK-5414,1 54809U 22175BD  23001.58334491 -.00004248  00000-0 -25912-4 0  9999,2 54809  53.2153 233.0058 0001372  64.7811 283.3009 15.73157866  1306,6728.015,91.536,350.80300000000005,348.957,0.0
54809.0,STARLINK-5414,PAYLOAD,2023-01-01 22:00:00,15.73150845,0.00016,53.2154,231.3586,59.541,17.4224,0.00036124,0.00050275,0.0,0 STARLINK-5414,1 54809U 22175BD  23001.91667824  .00050275  00000-0  36124-3 0  9990,2 54809  53.2154 231.3586 0001600  59.5410  17.4224 15.73150845  1300,6728.035,91.536,350.977,348.824,0.0
54809.0,STARLINK-5414,PAYLOAD,2023-01-02 05:17:54,15.73184749,0.0001883,53.2153,229.8532,50.8997,309.2191,0.00053311,0.0007482,0.0,0 STARLINK-5414,1 54809U 22175BD  23002.22076628  .00074820  00000-0  53311-3 0  9990,2 54809  53.2153 229.8532 0001883  50.8997 309.2191 15.73184749  2169,6727.939,91.534,351.071,348.537,0.0
54809.0,STARLINK-5414,PAYLOAD,2023-01-02 14:26:46,15.73225714,0.0001599,53.2151,227.9676,85.5219,274.5984,0.0002813,0.00039086,0.0,0 STARLINK-5414,1 54809U 22175BD  23002.60193139  .00039086  00000-0  28130-3 0  9995,2 54809  53.2151 227.9676 0001599  85.5219 274.5984 15.73225714  4389,6727.821999999999,91.532,350.76300000000015,348.611,0.0
54809.0,STARLINK-5414,PAYLOAD,2023-01-02 17:29:44,15.73206218,0.0001382,53.215,227.33900000000003,53.7833,306.3315,0.00022579,0.00031194,0.0,0 STARLINK-5414,1 54809U 22175BD  23002.72899005  .00031194  00000-0  22579-3 0  9996,2 54809  53.2150 227.3390 0001382  53.7833 306.3315 15.73206218  2247,6727.877,91.533,350.672,348.81300000000016,0.0
54809.0,STARLINK-5414,PAYLOAD,2023-01-02 20:32:42,15.73140456,0.0001479,53.2151,226.7096,73.7335,286.3848,-0.00028389,-0.00040171,0.0,0 STARLINK-5414,1 54809U 22175BD  23002.85605209 -.00040171  00000-0 -28389-3 0  9993,2 54809  53.2151 226.7096 0001479  73.7335 286.3848 15.73140456  4421,6728.065,91.537,350.925,348.935,0.0
54809.0,STARLINK-5414,PAYLOAD,2023-01-03 02:38:37,15.73182371,0.0001036,53.215,225.4521,69.5298,290.5833,4.8548e-05,6.194e-05,0.0,0 STARLINK-5414,1 54809U 22175BD  23003.11015978  .00006194  00000-0  48548-4 0  9996,2 54809  53.2150 225.4521 0001036  69.5298 290.5833 15.73182371  2307,6727.945,91.534,350.50699999999995,349.11300000000006,0.0
54809.0,STARLINK-5414,PAYLOAD,2023-01-03 05:41:35,15.73200312,0.000108,53.2149,224.8234,53.2328,306.8791,0.00029704,0.00041273,0.0,0 STARLINK-5414,1 54809U 22175BD  23003.23721480  .00041273  00000-0  29704-3 0  9990,2 54809  53.2149 224.8234 0001080  53.2328 306.8791 15.73200312  2324,6727.894,91.533,350.486,349.033,0.0
54809.0,STARLINK-5414,PAYLOAD,2023-01-03 11:47:30,15.73220577,0.0001097999999999,53.2148,223.5663,47.8988,312.2125,0.00043113,0.00060375,0.0,0 STARLINK-5414,1 54809U 22175BD  23003.49132524  .00060375  00000-0  43113-3 0  9997,2 54809  53.2148 223.5663 0001098  47.8988 312.2125 15.73220577  4526,6727.837,91.532,350.44,348.963,0.0
54809.0,STARLINK-5414,PAYLOAD,2023-01-03 20:56:23,15.73210274,0.0001186,53.2147,221.6799,53.5593,306.5536,0.00036793,0.00051355,0.0,0 STARLINK-5414,1 54809U 22175BD  23003.87249511  .00051355  00000-0  36793-3 0  9998,2 54809  53.2147 221.6799 0001186  53.5593 306.5536 15.73210274  2420,6727.866,91.533,350.529,348.93300000000005,0.0
54809.0,STARLINK-5414,PAYLOAD,2023-01-04 01:30:50,15.73196938,0.0001079,53.2148,220.7368,45.2683,314.8425,0.00020807,0.00028677,0.0,0 STARLINK-5414,1 54809U 22175BD  23004.06308060  .00028677  00000-0  20807-3 0  9995,2 54809  53.2148 220.7368 0001079  45.2683 314.8425 15.73196938  2454,6727.904,91.533,350.495,349.043,0.0
54809.0,STARLINK-5414,PAYLOAD,2023-01-04 07:36:45,15.73223497,0.0001324,53.2146,219.4796,42.6094,317.5029,0.00049901,0.0007007,0.0,0 STARLINK-5414,1 54809U 22175BD  23004.31719100  .00070070  00000-0  49901-3 0  9994,2 54809  53.2146 219.4796 0001324  42.6094 317.5029 15.73223497  2497,6727.828,91.532,350.584,348.802,0.0
54809.0,STARLINK-5414,PAYLOAD,2023-01-04 22:51:33,15.7322418,5.96e-05,53.2139,216.3351,2.5032,357.5991,0.00032382,0.00045117,0.0,0 STARLINK-5414,1 54809U 22175BD  23004.95246979  .00045117  00000-0  32382-3 0  9992,2 54809  53.2139 216.3351 0000596   2.5032 357.5991 15.73224180  2592,6727.826,91.532,350.092,349.29,0.0
54809.0,STARLINK-5414,PAYLOAD,2023-01-05 14:06:21,15.73244321,0.0001065,53.2136,213.1917,50.3558,309.7556,0.0004113999999999,0.00057624,0.0,0 STARLINK-5414,1 54809U 22175BD  23005.58775094  .00057624  00000-0  41140-3 0  9995,2 54809  53.2136 213.1917 0001065  50.3558 309.7556 15.73244321  4854,6727.769,91.531,350.35,348.917,0.0
54809.0,STARLINK-5414,PAYLOAD,2023-01-06 14:30:01,15.73208898,8.45e-05,53.2135,208.1606,96.1693,263.9424,2.2853000000000006e-05,2.59e-05,0.0,0 STARLINK-5414,1 54809U 22175BD  23006.60418841  .00002590  00000-0  22853-4 0  9996,2 54809  53.2135 208.1606 0000845  96.1693 263.9424 15.73208898  2857,6727.87,91.533,350.30300000000005,349.166,0.0
54809.0,STARLINK-5414,PAYLOAD,2023-01-07 19:28:09,15.73215786,4.92e-05,53.2144,202.1883,36.3142,323.7912,6.3346e-05,8.286e-05,0.0,0 STARLINK-5414,1 54809U 22175BD  23007.81121604  .00008286  00000-0  63346-4 0  9998,2 54809  53.2144 202.1883 0000492  36.3142 323.7912 15.73215786  3044,6727.85,91.532,350.046,349.384,0.0
54809.0,STARLINK-5414,PAYLOAD,2023-01-08 12:14:26,15.73203675,4.45e-05,53.216,198.7296,37.6029,322.5023,1.0334e-05,8.32e-06,0.0,0 STARLINK-5414,1 54809U 22175BD  23008.51002711  .00000832  00000-0  10334-4 0  9991,2 54809  53.2160 198.7296 0000445  37.6029 322.5023 15.73203675  3152,6727.885,91.533,350.0490000000001,349.45,0.0
